[{"OBJECT_NAME":"STARLINK-3180","OBJECT_ID":"2022-005AK","EPOCH":"2026-03-09T21:57:57.148992","MEAN_MOTION":15.0882725,"ECCENTRICITY":0.00011965,"INCLINATION":53.2175,"RA_OF_ASC_NODE":298.107,"ARG_OF_PERICENTER":82.1941,"MEAN_ANOMALY":277.9187,"EPHEMERIS_TYPE":0,"CLASSIFICATION_TYPE":"U","NORAD_CAT_ID":51137,"ELEMENT_SET_NO":999,"REV_AT_EPOCH":22877,"BSTAR":0.00012569288,"MEAN_MOTION_DOT":1.712e-5,"MEAN_MOTION_DDOT":0},{"OBJECT_NAME":"POSAT-2","OBJECT_ID":"2025-009DR","EPOCH":"2026-03-09T23:15:20.314368","MEAN_MOTION":15.10404492,"ECCENTRICITY":0.00077103,"INCLINATION":97.4906,"RA_OF_ASC_NODE":146.0095,"ARG_OF_PERICENTER":126.4226,"MEAN_ANOMALY":233.7715,"EPHEMERIS_TYPE":0,"CLASSIFICATION_TYPE":"U","NORAD_CAT_ID":63488,"ELEMENT_SET_NO":999,"REV_AT_EPOCH":5165,"BSTAR":0.0010942248,"MEAN_MOTION_DOT":0.00017957,"MEAN_MOTION_DDOT":0}]
